{
  "norad_id": 65034,
  "name": "STARLINK-34610",
  "history": [
    {
      "epoch": "2026-03-28T17:29:48.901344Z",
      "apogee_km": 475.9298943554686,
      "perigee_km": 474.46643316459995,
      "latitude_deg": 1.7383355651894165e-05,
      "longitude_deg": 117.24994864312137,
      "height_km": 476.2889661699565,
      "semi_major_axis_km": 6853.335163760034,
      "eccentricity": 0.00010677,
      "inclination_deg": 53.1582,
      "raan_deg": 205.849,
      "arg_perigee_deg": 105.2607,
      "mean_anomaly_deg": 254.8512,
      "mean_motion_rev_day": 15.30205662
    }
  ]
}