{"fetched_at":"2026-03-29T16:36:15Z","count":15609,"tles":[{"name":"STARLINK-34610","line1":"1 65034U 25161V   26087.72903821  .00035302  00000+0  11982-2 0  9993","line2":"2 65034  53.1582 205.8490 0001067 105.2607 254.8512 15.30205662 37149","category":"Starlink"}]}